CCSDS_OMM_VERS,COMMENT,CREATION_DATE,ORIGINATOR,OBJECT_NAME,OBJECT_ID,CENTER_NAME,REF_FRAME,TIME_SYSTEM,MEAN_ELEMENT_THEORY,EPOCH,MEAN_MOTION,ECCENTRICITY,INCLINATION,RA_OF_ASC_NODE,ARG_OF_PERICENTER,MEAN_ANOMALY,EPHEMERIS_TYPE,CLASSIFICATION_TYPE,NORAD_CAT_ID,ELEMENT_SET_NO,REV_AT_EPOCH,BSTAR,MEAN_MOTION_DOT,MEAN_MOTION_DDOT,SEMIMAJOR_AXIS,PERIOD,APOAPSIS,PERIAPSIS,OBJECT_TYPE,RCS_SIZE,COUNTRY_CODE,LAUNCH_DATE,SITE,DECAY_DATE,FILE,GP_ID,TLE_LINE0,TLE_LINE1,TLE_LINE2
2,GENERATED VIA SPACE-TRACK.ORG API,2023-06-05T14:26:13,18 SPCS,GALILEO-FM3,2012-055A,EARTH,TEME,UTC,SGP4,2023-06-04T19:53:00.163104,1.70473566,0.0005665,55.253,132.0085,273.1373,86.7578,0,U,38857,999,6625,0.0,6.1e-07,0,29600.37,844.706,23239.004,23205.467,PAYLOAD,LARGE,ESA,2012-10-12,FRGUI,,3925519,233230246,0 GALILEO-FM3,1 38857U 12055A   23155.82847411  .00000061  00000-0  00000+0 0  9991,2 38857  55.2530 132.0085 0005665 273.1373  86.7578  1.70473566 66259
2,GENERATED VIA SPACE-TRACK.ORG API,2023-06-06T03:26:03,18 SPCS,GALILEO-FM3,2012-055A,EARTH,TEME,UTC,SGP4,2023-06-05T09:57:40.823712,1.70473563,0.0005652,55.2532,131.9924,273.1268,86.7665,0,U,38857,999,6612,0.0,5.8e-07,0,29600.371,844.706,23238.966,23205.506,PAYLOAD,LARGE,ESA,2012-10-12,FRGUI,,3925751,233275361,0 GALILEO-FM3,1 38857U 12055A   23156.41505583  .00000058  00000-0  00000-0 0  9995,2 38857  55.2532 131.9924 0005652 273.1268  86.7665  1.70473563 66120
2,GENERATED VIA SPACE-TRACK.ORG API,2023-06-08T06:26:13,18 SPCS,GALILEO-FM3,2012-055A,EARTH,TEME,UTC,SGP4,2023-06-07T18:16:24.679200,1.70473542,0.0005611,55.2541,131.928,273.2577,86.6366,0,U,38857,999,6630,0.0,5.3e-07,0,29600.373,844.706,23238.847,23205.629,PAYLOAD,LARGE,ESA,2012-10-12,FRGUI,,3927499,233437381,0 GALILEO-FM3,1 38857U 12055A   23158.76139675  .00000053  00000-0  00000+0 0  9994,2 38857  55.2541 131.9280 0005611 273.2577  86.6366  1.70473542 66308
2,GENERATED VIA SPACE-TRACK.ORG API,2023-06-08T18:02:28,18 SPCS,GALILEO-FM3,2012-055A,EARTH,TEME,UTC,SGP4,2023-06-08T08:21:05.855616,1.70473541,0.0005617,55.2546,131.9118,273.2623,86.6337,0,U,38857,999,6617,0.0,5.4e-07,0,29600.373,844.706,23238.865,23205.612,PAYLOAD,LARGE,ESA,2012-10-12,FRGUI,,3928007,233464034,0 GALILEO-FM3,1 38857U 12055A   23159.34798444  .00000054  00000-0  00000-0 0  9996,2 38857  55.2546 131.9118 0005617 273.2623  86.6337  1.70473541 66173
2,GENERATED VIA SPACE-TRACK.ORG API,2023-06-09T20:32:52,18 SPCS,GALILEO-FM3,2012-055A,EARTH,TEME,UTC,SGP4,2023-06-08T22:25:47.090784,1.70473543,0.0005593,55.2548,131.8957,273.3607,86.5376,0,U,38857,999,6618,0.0,5.4e-07,0,29600.373,844.706,23238.793,23205.682,PAYLOAD,LARGE,ESA,2012-10-12,FRGUI,,3928876,233537299,0 GALILEO-FM3,1 38857U 12055A   23159.93457281  .00000054  00000-0  00000-0 0  9992,2 38857  55.2548 131.8957 0005593 273.3607  86.5376  1.70473543 66186
2,GENERATED VIA SPACE-TRACK.ORG API,2023-06-10T06:36:12,18 SPCS,GALILEO-FM3,2012-055A,EARTH,TEME,UTC,SGP4,2023-06-10T02:35:09.481632,1.70473546,0.0005572,55.2552,131.8635,273.502,86.3999,0,U,38857,999,6634,0.0,5.5e-07,0,29600.373,844.706,23238.731,23205.744,PAYLOAD,LARGE,ESA,2012-10-12,FRGUI,,3929195,233585665,0 GALILEO-FM3,1 38857U 12055A   23161.10774863  .00000055  00000-0  00000+0 0  9992,2 38857  55.2552 131.8635 0005572 273.5020  86.3999  1.70473546 66342
2,GENERATED VIA SPACE-TRACK.ORG API,2023-06-11T02:49:59,18 SPCS,GALILEO-FM3,2012-055A,EARTH,TEME,UTC,SGP4,2023-06-10T02:35:09.510144,1.70473549,0.0005554,55.2553,131.8635,273.5754,86.3267,0,U,38857,999,6620,0.0,5.5e-07,0,29600.372,844.706,23238.677,23205.797,PAYLOAD,LARGE,ESA,2012-10-12,FRGUI,,3929969,233645597,0 GALILEO-FM3,1 38857U 12055A   23161.10774896  .00000055  00000-0  00000-0 0  9999,2 38857  55.2553 131.8635 0005554 273.5754  86.3267  1.70473549 66203
